{"type": "FeatureCollection", "features": [ {"type": "Feature", "properties": {"norad_id": 34077, "name": "IRIDIUM 33 DEB", "group": "iridium-33-debris", "lat": -55.14510108073241, "lon": -118.95384859359935, "alt_km": 693.1324531718046, "timestamp": "2025-12-02T21:34:01.655777+00:00", "meta": {"OBJECT_NAME": "IRIDIUM 33 DEB", "OBJECT_ID": "1997-051CL", "EPOCH": "2025-12-02T05:59:03.401088", "MEAN_MOTION": 14.64548903, "ECCENTRICITY": 0.0011021, "INCLINATION": 86.3871, "RA_OF_ASC_NODE": 56.1267, "ARG_OF_PERICENTER": 72.3746, "MEAN_ANOMALY": 341.7588, "EPHEMERIS_TYPE": 0, "CLASSIFICATION_TYPE": "U", "NORAD_CAT_ID": 34077, "ELEMENT_SET_NO": 999, "REV_AT_EPOCH": 88179, "BSTAR": 0.0020602, "MEAN_MOTION_DOT": 0.00010964, "MEAN_MOTION_DDOT": 0}, "tle": {"line1": "1 34077U 97051CL  25336.24934492  .00010964  00000+0  20602-2 0  9990", "line2": "2 34077  86.3871  56.1267 0011021  72.3746 341.7588 14.64548903881790"}}, "geometry": {"type": "Point", "coordinates": [-118.95384859359935, -55.14510108073241]}}, {"type": "Feature", "properties": {"norad_id": 34079, "name": "IRIDIUM 33 DEB", "group": "iridium-33-debris", "lat": -71.21593000741731, "lon": 2.4066881299120877, "alt_km": 628.4291974616108, "timestamp": "2025-12-02T21:34:01.655788+00:00", "meta": {"OBJECT_NAME": "IRIDIUM 33 DEB", "OBJECT_ID": "1997-051CN", "EPOCH": "2025-12-02T02:41:47.766624", "MEAN_MOTION": 14.83089059, "ECCENTRICITY": 0.00068188, "INCLINATION": 86.379, "RA_OF_ASC_NODE": 13.4941, "ARG_OF_PERICENTER": 39.8853, "MEAN_ANOMALY": 13.4166, "EPHEMERIS_TYPE": 0, "CLASSIFICATION_TYPE": "U", "NORAD_CAT_ID": 34079, "ELEMENT_SET_NO": 999, "REV_AT_EPOCH": 88820, "BSTAR": 0.0017614737, "MEAN_MOTION_DOT": 0.00014386, "MEAN_MOTION_DDOT": 0}, "tle": {"line1": "1 34079U 97051CN  25336.11235841  .00014386  00000+0  17615-2 0  9992", "line2": "2 34079  86.3790  13.4941 0006818  39.8853  13.4166 14.83089059888203"}}, "geometry": {"type": "Point", "coordinates": [2.4066881299120877, -71.21593000741731]}}, {"type": "Feature", "properties": {"norad_id": 34088, "name": "IRIDIUM 33 DEB", "group": "iridium-33-debris", "lat": 71.54173906167586, "lon": -155.66973775180026, "alt_km": 590.2979751518633, "timestamp": "2025-12-02T21:34:01.655798+00:00", "meta": {"OBJECT_NAME": "IRIDIUM 33 DEB", "OBJECT_ID": "1997-051CX", "EPOCH": "2025-12-02T05:14:28.919328", "MEAN_MOTION": 14.90549339, "ECCENTRICITY": 0.0005127, "INCLINATION": 86.3866, "RA_OF_ASC_NODE": 35.5553, "ARG_OF_PERICENTER": 216.8077, "MEAN_ANOMALY": 203.5525, "EPHEMERIS_TYPE": 0, "CLASSIFICATION_TYPE": "U", "NORAD_CAT_ID": 34088, "ELEMENT_SET_NO": 999, "REV_AT_EPOCH": 88585, "BSTAR": 0.0030879, "MEAN_MOTION_DOT": 0.00030304, "MEAN_MOTION_DDOT": 0}, "tle": {"line1": "1 34088U 97051CX  25336.21839027  .00030304  00000+0  30879-2 0  9994", "line2": "2 34088  86.3866  35.5553 0005127 216.8077 203.5525 14.90549339885857"}}, "geometry": {"type": "Point", "coordinates": [-155.66973775180026, 71.54173906167586]}}, {"type": "Feature", "properties": {"norad_id": 34091, "name": "IRIDIUM 33 DEB", "group": "iridium-33-debris", "lat": -79.88909225593623, "lon": 50.312414934379255, "alt_km": 619.8934551551647, "timestamp": "2025-12-02T21:34:01.655808+00:00", "meta": {"OBJECT_NAME": "IRIDIUM 33 DEB", "OBJECT_ID": "1997-051DA", "EPOCH": "2025-12-02T05:42:26.763264", "MEAN_MOTION": 14.80503091, "ECCENTRICITY": 0.0032917, "INCLINATION": 86.342, "RA_OF_ASC_NODE": 71.638, "ARG_OF_PERICENTER": 331.035, "MEAN_ANOMALY": 28.9043, "EPHEMERIS_TYPE": 0, "CLASSIFICATION_TYPE": "U", "NORAD_CAT_ID": 34091, "ELEMENT_SET_NO": 999, "REV_AT_EPOCH": 87711, "BSTAR": 0.0059169, "MEAN_MOTION_DOT": 0.00045975, "MEAN_MOTION_DDOT": 0}, "tle": {"line1": "1 34091U 97051DA  25336.23780976  .00045975  00000+0  59169-2 0  9991", "line2": "2 34091  86.3420  71.6380 0032917 331.0350  28.9043 14.80503091877115"}}, "geometry": {"type": "Point", "coordinates": [50.312414934379255, -79.88909225593623]}}, {"type": "Feature", "properties": {"norad_id": 34097, "name": "IRIDIUM 33 DEB", "group": "iridium-33-debris", "lat": 12.765852256015764, "lon": 6.614132992381432, "alt_km": 721.4851705543642, "timestamp": "2025-12-02T21:34:01.655819+00:00", "meta": {"OBJECT_NAME": "IRIDIUM 33 DEB", "OBJECT_ID": "1997-051DG", "EPOCH": "2025-12-02T03:05:43.364832", "MEAN_MOTION": 14.34646707, "ECCENTRICITY": 0.00838008, "INCLINATION": 86.2012, "RA_OF_ASC_NODE": 6.091, "ARG_OF_PERICENTER": 36.59, "MEAN_ANOMALY": 324.0979, "EPHEMERIS_TYPE": 0, "CLASSIFICATION_TYPE": "U", "NORAD_CAT_ID": 34097, "ELEMENT_SET_NO": 999, "REV_AT_EPOCH": 86967, "BSTAR": 0.001439253, "MEAN_MOTION_DOT": 4.252e-05, "MEAN_MOTION_DDOT": 0}, "tle": {"line1": "1 34097U 97051DG  25336.12897413  .00004252  00000+0  14393-2 0  9993", "line2": "2 34097  86.2012   6.0910 0083800  36.5900 324.0979 14.34646707869674"}}, "geometry": {"type": "Point", "coordinates": [6.614132992381432, 12.765852256015764]}}, {"type": "Feature", "properties": {"norad_id": 34145, "name": "IRIDIUM 33 DEB", "group": "iridium-33-debris", "lat": 15.846865356773339, "lon": -22.012133064091646, "alt_km": 764.7664174195606, "timestamp": "2025-12-02T21:34:01.655829+00:00", "meta": {"OBJECT_NAME": "IRIDIUM 33 DEB", "OBJECT_ID": "1997-051DY", "EPOCH": "2025-12-02T04:50:28.112064", "MEAN_MOTION": 14.42171439, "ECCENTRICITY": 0.005521, "INCLINATION": 86.2116, "RA_OF_ASC_NODE": 337.2204, "ARG_OF_PERICENTER": 127.3566, "MEAN_ANOMALY": 233.2681, "EPHEMERIS_TYPE": 0, "CLASSIFICATION_TYPE": "U", "NORAD_CAT_ID": 34145, "ELEMENT_SET_NO": 999, "REV_AT_EPOCH": 87486, "BSTAR": 0.0012017, "MEAN_MOTION_DOT": 4.048e-05, "MEAN_MOTION_DDOT": 0}, "tle": {"line1": "1 34145U 97051DY  25336.20171426  .00004048  00000+0  12017-2 0  9999", "line2": "2 34145  86.2116 337.2204 0055210 127.3566 233.2681 14.42171439874861"}}, "geometry": {"type": "Point", "coordinates": [-22.012133064091646, 15.846865356773339]}}, {"type": "Feature", "properties": {"norad_id": 34146, "name": "IRIDIUM 33 DEB", "group": "iridium-33-debris", "lat": 44.922840859518814, "lon": 170.43209799490768, "alt_km": 734.8262405387231, "timestamp": "2025-12-02T21:34:01.655839+00:00", "meta": {"OBJECT_NAME": "IRIDIUM 33 DEB", "OBJECT_ID": "1997-051DZ", "EPOCH": "2025-12-02T07:45:12.587040", "MEAN_MOTION": 14.48929067, "ECCENTRICITY": 0.0024975, "INCLINATION": 86.284, "RA_OF_ASC_NODE": 354.4024, "ARG_OF_PERICENTER": 259.0769, "MEAN_ANOMALY": 115.7131, "EPHEMERIS_TYPE": 0, "CLASSIFICATION_TYPE": "U", "NORAD_CAT_ID": 34146, "ELEMENT_SET_NO": 999, "REV_AT_EPOCH": 87956, "BSTAR": 0.0011939, "MEAN_MOTION_DOT": 4.556e-05, "MEAN_MOTION_DDOT": 0}, "tle": {"line1": "1 34146U 97051DZ  25336.32306235  .00004556  00000+0  11939-2 0  9997", "line2": "2 34146  86.2840 354.4024 0024975 259.0769 115.7131 14.48929067879569"}}, "geometry": {"type": "Point", "coordinates": [170.43209799490768, 44.922840859518814]}}, {"type": "Feature", "properties": {"norad_id": 34159, "name": "IRIDIUM 33 DEB", "group": "iridium-33-debris", "lat": -41.834948371017504, "lon": -124.2888974868791, "alt_km": 773.7266226069114, "timestamp": "2025-12-02T21:34:01.655849+00:00", "meta": {"OBJECT_NAME": "IRIDIUM 33 DEB", "OBJECT_ID": "1997-051EN", "EPOCH": "2025-12-02T05:30:39.557664", "MEAN_MOTION": 14.38450658, "ECCENTRICITY": 0.0026569, "INCLINATION": 86.3516, "RA_OF_ASC_NODE": 52.7218, "ARG_OF_PERICENTER": 324.6126, "MEAN_ANOMALY": 35.3308, "EPHEMERIS_TYPE": 0, "CLASSIFICATION_TYPE": "U", "NORAD_CAT_ID": 34159, "ELEMENT_SET_NO": 999, "REV_AT_EPOCH": 87808, "BSTAR": 0.00054436, "MEAN_MOTION_DOT": 1.686e-05, "MEAN_MOTION_DDOT": 0}, "tle": {"line1": "1 34159U 97051EN  25336.22962451  .00001686  00000+0  54436-3 0  9999", "line2": "2 34159  86.3516  52.7218 0026569 324.6126  35.3308 14.38450658878087"}}, "geometry": {"type": "Point", "coordinates": [-124.2888974868791, -41.834948371017504]}}, {"type": "Feature", "properties": {"norad_id": 34350, "name": "IRIDIUM 33 DEB", "group": "iridium-33-debris", "lat": 6.780941857651895, "lon": 7.514971612411345, "alt_km": 757.5005802170836, "timestamp": "2025-12-02T21:34:01.655859+00:00", "meta": {"OBJECT_NAME": "IRIDIUM 33 DEB", "OBJECT_ID": "1997-051ES", "EPOCH": "2025-12-02T08:18:42.441120", "MEAN_MOTION": 14.45348851, "ECCENTRICITY": 0.0021747, "INCLINATION": 86.3283, "RA_OF_ASC_NODE": 7.317, "ARG_OF_PERICENTER": 168.0974, "MEAN_ANOMALY": 206.9474, "EPHEMERIS_TYPE": 0, "CLASSIFICATION_TYPE": "U", "NORAD_CAT_ID": 34350, "ELEMENT_SET_NO": 999, "REV_AT_EPOCH": 88143, "BSTAR": 0.0004162, "MEAN_MOTION_DOT": 1.486e-05, "MEAN_MOTION_DDOT": 0}, "tle": {"line1": "1 34350U 97051ES  25336.34632455  .00001486  00000+0  41620-3 0  9992", "line2": "2 34350  86.3283   7.3170 0021747 168.0974 206.9474 14.45348851881430"}}, "geometry": {"type": "Point", "coordinates": [7.514971612411345, 6.780941857651895]}}, {"type": "Feature", "properties": {"norad_id": 34366, "name": "IRIDIUM 33 DEB", "group": "iridium-33-debris", "lat": 29.79138333633139, "lon": 55.67451412888229, "alt_km": 723.5028783747057, "timestamp": "2025-12-02T21:34:01.655869+00:00", "meta": {"OBJECT_NAME": "IRIDIUM 33 DEB", "OBJECT_ID": "1997-051FJ", "EPOCH": "2025-12-02T11:35:18.626208", "MEAN_MOTION": 14.53898098, "ECCENTRICITY": 0.0021636, "INCLINATION": 86.3709, "RA_OF_ASC_NODE": 53.7729, "ARG_OF_PERICENTER": 172.7514, "MEAN_ANOMALY": 202.5717, "EPHEMERIS_TYPE": 0, "CLASSIFICATION_TYPE": "U", "NORAD_CAT_ID": 34366, "ELEMENT_SET_NO": 999, "REV_AT_EPOCH": 88033, "BSTAR": 0.0015823, "MEAN_MOTION_DOT": 6.695e-05, "MEAN_MOTION_DDOT": 0}, "tle": {"line1": "1 34366U 97051FJ  25336.48285447  .00006695  00000+0  15823-2 0  9991", "line2": "2 34366  86.3709  53.7729 0021636 172.7514 202.5717 14.53898098880336"}}, "geometry": {"type": "Point", "coordinates": [55.67451412888229, 29.79138333633139]}}]}